{"type": "FeatureCollection", "features": [ {"type": "Feature", "properties": {"norad_id": 34529, "name": "IRIDIUM 33 DEB", "group": "iridium-33-debris", "lat": 57.45160786515176, "lon": 41.46705614286704, "alt_km": 752.7728232895806, "timestamp": "2025-12-11T22:43:47.654770+00:00", "meta": {"OBJECT_NAME": "IRIDIUM 33 DEB", "OBJECT_ID": "1997-051HW", "EPOCH": "2025-12-11T14:07:40.885824", "MEAN_MOTION": 14.40614441, "ECCENTRICITY": 0.00046649, "INCLINATION": 86.3642, "RA_OF_ASC_NODE": 35.9025, "ARG_OF_PERICENTER": 180.4404, "MEAN_ANOMALY": 179.6792, "EPHEMERIS_TYPE": 0, "CLASSIFICATION_TYPE": "U", "NORAD_CAT_ID": 34529, "ELEMENT_SET_NO": 999, "REV_AT_EPOCH": 88125, "BSTAR": 0.00017424835, "MEAN_MOTION_DOT": 5.75e-06, "MEAN_MOTION_DDOT": 0}, "tle": {"line1": "1 34529U 97051HW  25345.58866766  .00000575  00000+0  17425-3 0  9994", "line2": "2 34529  86.3642  35.9025 0004664 180.4404 179.6792 14.40614441881253"}}, "geometry": {"type": "Point", "coordinates": [41.46705614286704, 57.45160786515176]}}, {"type": "Feature", "properties": {"norad_id": 34538, "name": "IRIDIUM 33 DEB", "group": "iridium-33-debris", "lat": -68.40163902707518, "lon": -164.6315072694408, "alt_km": 753.8400212125271, "timestamp": "2025-12-11T22:43:47.654780+00:00", "meta": {"OBJECT_NAME": "IRIDIUM 33 DEB", "OBJECT_ID": "1997-051JF", "EPOCH": "2025-12-11T12:17:49.059168", "MEAN_MOTION": 14.42637449, "ECCENTRICITY": 0.00329249, "INCLINATION": 86.2774, "RA_OF_ASC_NODE": 6.0934, "ARG_OF_PERICENTER": 332.21, "MEAN_ANOMALY": 180.6153, "EPHEMERIS_TYPE": 0, "CLASSIFICATION_TYPE": "U", "NORAD_CAT_ID": 34538, "ELEMENT_SET_NO": 999, "REV_AT_EPOCH": 87738, "BSTAR": 0.0015467501, "MEAN_MOTION_DOT": 5.192e-05, "MEAN_MOTION_DDOT": 0}, "tle": {"line1": "1 34538U 97051JF  25345.51237337  .00005192  00000+0  15468-2 0  9997", "line2": "2 34538  86.2774   6.0934 0032924 332.2100 180.6153 14.42637449877383"}}, "geometry": {"type": "Point", "coordinates": [-164.6315072694408, -68.40163902707518]}}, {"type": "Feature", "properties": {"norad_id": 34540, "name": "IRIDIUM 33 DEB", "group": "iridium-33-debris", "lat": -34.25154131585114, "lon": 130.48761093667437, "alt_km": 643.55159954808, "timestamp": "2025-12-11T22:43:47.654790+00:00", "meta": {"OBJECT_NAME": "IRIDIUM 33 DEB", "OBJECT_ID": "1997-051JH", "EPOCH": "2025-12-11T15:48:51.253056", "MEAN_MOTION": 14.75284655, "ECCENTRICITY": 0.00162285, "INCLINATION": 86.3108, "RA_OF_ASC_NODE": 308.1013, "ARG_OF_PERICENTER": 162.9977, "MEAN_ANOMALY": 321.6929, "EPHEMERIS_TYPE": 0, "CLASSIFICATION_TYPE": "U", "NORAD_CAT_ID": 34540, "ELEMENT_SET_NO": 999, "REV_AT_EPOCH": 89005, "BSTAR": 0.002611865, "MEAN_MOTION_DOT": 0.00017769, "MEAN_MOTION_DDOT": 0}, "tle": {"line1": "1 34540U 97051JH  25345.65892654  .00017769  00000+0  26119-2 0  9992", "line2": "2 34540  86.3108 308.1013 0016228 162.9977 321.6929 14.75284655890051"}}, "geometry": {"type": "Point", "coordinates": [130.48761093667437, -34.25154131585114]}}, {"type": "Feature", "properties": {"norad_id": 34648, "name": "IRIDIUM 33 DEB", "group": "iridium-33-debris", "lat": -1.0237187439074618, "lon": 102.33109777615358, "alt_km": 922.8302527256265, "timestamp": "2025-12-11T22:43:47.654801+00:00", "meta": {"OBJECT_NAME": "IRIDIUM 33 DEB", "OBJECT_ID": "1997-051JZ", "EPOCH": "2025-12-11T13:21:05.102784", "MEAN_MOTION": 14.11443671, "ECCENTRICITY": 0.01830215, "INCLINATION": 86.3904, "RA_OF_ASC_NODE": 282.4242, "ARG_OF_PERICENTER": 302.6046, "MEAN_ANOMALY": 55.7583, "EPHEMERIS_TYPE": 0, "CLASSIFICATION_TYPE": "U", "NORAD_CAT_ID": 34648, "ELEMENT_SET_NO": 999, "REV_AT_EPOCH": 84944, "BSTAR": 0.011270699, "MEAN_MOTION_DOT": 0.00023967, "MEAN_MOTION_DDOT": 0}, "tle": {"line1": "1 34648U 97051JZ  25345.55630906  .00023967  00000+0  11271-1 0  9999", "line2": "2 34648  86.3904 282.4242 0183021 302.6046  55.7583 14.11443671849441"}}, "geometry": {"type": "Point", "coordinates": [102.33109777615358, -1.0237187439074618]}}, {"type": "Feature", "properties": {"norad_id": 34651, "name": "IRIDIUM 33 DEB", "group": "iridium-33-debris", "lat": -19.495967342483983, "lon": -37.76690963633477, "alt_km": 709.6567199313731, "timestamp": "2025-12-11T22:43:47.654815+00:00", "meta": {"OBJECT_NAME": "IRIDIUM 33 DEB", "OBJECT_ID": "1997-051KC", "EPOCH": "2025-12-11T10:00:09.377280", "MEAN_MOTION": 14.25785902, "ECCENTRICITY": 0.01420766, "INCLINATION": 86.2836, "RA_OF_ASC_NODE": 141.1401, "ARG_OF_PERICENTER": 208.1446, "MEAN_ANOMALY": 151.2016, "EPHEMERIS_TYPE": 0, "CLASSIFICATION_TYPE": "U", "NORAD_CAT_ID": 34651, "ELEMENT_SET_NO": 999, "REV_AT_EPOCH": 85877, "BSTAR": 0.0064804536, "MEAN_MOTION_DOT": 0.00017162, "MEAN_MOTION_DDOT": 0}, "tle": {"line1": "1 34651U 97051KC  25345.41677520  .00017162  00000+0  64805-2 0  9993", "line2": "2 34651  86.2836 141.1401 0142076 208.1446 151.2016 14.25785902858775"}}, "geometry": {"type": "Point", "coordinates": [-37.76690963633477, -19.495967342483983]}}, {"type": "Feature", "properties": {"norad_id": 34652, "name": "IRIDIUM 33 DEB", "group": "iridium-33-debris", "lat": 32.51428795996511, "lon": 158.0109223536102, "alt_km": 701.2440535428823, "timestamp": "2025-12-11T22:43:47.654836+00:00", "meta": {"OBJECT_NAME": "IRIDIUM 33 DEB", "OBJECT_ID": "1997-051KD", "EPOCH": "2025-12-11T07:34:05.057184", "MEAN_MOTION": 14.62038303, "ECCENTRICITY": 0.00260123, "INCLINATION": 86.3317, "RA_OF_ASC_NODE": 340.6357, "ARG_OF_PERICENTER": 303.4759, "MEAN_ANOMALY": 121.0337, "EPHEMERIS_TYPE": 0, "CLASSIFICATION_TYPE": "U", "NORAD_CAT_ID": 34652, "ELEMENT_SET_NO": 999, "REV_AT_EPOCH": 88463, "BSTAR": 0.0018117648, "MEAN_MOTION_DOT": 9.158e-05, "MEAN_MOTION_DDOT": 0}, "tle": {"line1": "1 34652U 97051KD  25345.31533631  .00009158  00000+0  18118-2 0  9999", "line2": "2 34652  86.3317 340.6357 0026012 303.4759 121.0337 14.62038303884636"}}, "geometry": {"type": "Point", "coordinates": [158.0109223536102, 32.51428795996511]}}, {"type": "Feature", "properties": {"norad_id": 34690, "name": "IRIDIUM 33 DEB", "group": "iridium-33-debris", "lat": 29.961496473024447, "lon": 39.428351026444936, "alt_km": 699.8176016974139, "timestamp": "2025-12-11T22:43:47.654861+00:00", "meta": {"OBJECT_NAME": "IRIDIUM 33 DEB", "OBJECT_ID": "1997-051KM", "EPOCH": "2025-12-11T02:55:05.414016", "MEAN_MOTION": 14.5508579, "ECCENTRICITY": 0.00110418, "INCLINATION": 86.378, "RA_OF_ASC_NODE": 37.6945, "ARG_OF_PERICENTER": 34.4543, "MEAN_ANOMALY": 354.2887, "EPHEMERIS_TYPE": 0, "CLASSIFICATION_TYPE": "U", "NORAD_CAT_ID": 34690, "ELEMENT_SET_NO": 999, "REV_AT_EPOCH": 88071, "BSTAR": 0.00065168739, "MEAN_MOTION_DOT": 2.833e-05, "MEAN_MOTION_DDOT": 0}, "tle": {"line1": "1 34690U 97051KM  25345.12159044  .00002833  00000+0  65169-3 0  9994", "line2": "2 34690  86.3780  37.6945 0011041  34.4543 354.2887 14.55085790880715"}}, "geometry": {"type": "Point", "coordinates": [39.428351026444936, 29.961496473024447]}}, {"type": "Feature", "properties": {"norad_id": 34693, "name": "IRIDIUM 33 DEB", "group": "iridium-33-debris", "lat": -51.11966277969402, "lon": 128.81683071656462, "alt_km": 499.51625114289436, "timestamp": "2025-12-11T22:43:47.654880+00:00", "meta": {"OBJECT_NAME": "IRIDIUM 33 DEB", "OBJECT_ID": "1997-051KQ", "EPOCH": "2025-12-11T09:42:36.581184", "MEAN_MOTION": 15.27439249, "ECCENTRICITY": 0.0014165, "INCLINATION": 86.3047, "RA_OF_ASC_NODE": 304.4888, "ARG_OF_PERICENTER": 55.718, "MEAN_ANOMALY": 74.2343, "EPHEMERIS_TYPE": 0, "CLASSIFICATION_TYPE": "U", "NORAD_CAT_ID": 34693, "ELEMENT_SET_NO": 999, "REV_AT_EPOCH": 88894, "BSTAR": 0.0085161801, "MEAN_MOTION_DOT": 0.00236096, "MEAN_MOTION_DDOT": 0}, "tle": {"line1": "1 34693U 97051KQ  25345.40459006  .00236096  00000+0  85162-2 0  9993", "line2": "2 34693  86.3047 304.4888 0014165  55.7180  74.2343 15.27439249888949"}}, "geometry": {"type": "Point", "coordinates": [128.81683071656462, -51.11966277969402]}}, {"type": "Feature", "properties": {"norad_id": 34696, "name": "IRIDIUM 33 DEB", "group": "iridium-33-debris", "lat": 40.15666441347168, "lon": -155.3366238727591, "alt_km": 628.8223503528325, "timestamp": "2025-12-11T22:43:47.654896+00:00", "meta": {"OBJECT_NAME": "IRIDIUM 33 DEB", "OBJECT_ID": "1997-051KT", "EPOCH": "2025-12-11T02:33:26.982720", "MEAN_MOTION": 14.64953116, "ECCENTRICITY": 0.00741481, "INCLINATION": 86.185, "RA_OF_ASC_NODE": 28.2818, "ARG_OF_PERICENTER": 173.0229, "MEAN_ANOMALY": 217.0787, "EPHEMERIS_TYPE": 0, "CLASSIFICATION_TYPE": "U", "NORAD_CAT_ID": 34696, "ELEMENT_SET_NO": 999, "REV_AT_EPOCH": 86649, "BSTAR": 0.0075396538, "MEAN_MOTION_DOT": 0.00042238, "MEAN_MOTION_DDOT": 0}, "tle": {"line1": "1 34696U 97051KT  25345.10656230  .00042238  00000+0  75397-2 0  9993", "line2": "2 34696  86.1850  28.2818 0074148 173.0229 217.0787 14.64953116866490"}}, "geometry": {"type": "Point", "coordinates": [-155.3366238727591, 40.15666441347168]}}, {"type": "Feature", "properties": {"norad_id": 34765, "name": "IRIDIUM 33 DEB", "group": "iridium-33-debris", "lat": 78.99062759863934, "lon": -166.1086469761092, "alt_km": 754.1317226155406, "timestamp": "2025-12-11T22:43:47.654913+00:00", "meta": {"OBJECT_NAME": "IRIDIUM 33 DEB", "OBJECT_ID": "1997-051LJ", "EPOCH": "2025-12-11T14:38:05.129376", "MEAN_MOTION": 14.40460694, "ECCENTRICITY": 0.00153204, "INCLINATION": 86.3396, "RA_OF_ASC_NODE": 33.2465, "ARG_OF_PERICENTER": 215.3687, "MEAN_ANOMALY": 297.1612, "EPHEMERIS_TYPE": 0, "CLASSIFICATION_TYPE": "U", "NORAD_CAT_ID": 34765, "ELEMENT_SET_NO": 999, "REV_AT_EPOCH": 87597, "BSTAR": 0.00062745119, "MEAN_MOTION_DOT": 2.016e-05, "MEAN_MOTION_DDOT": 0}, "tle": {"line1": "1 34765U 97051LJ  25345.60978159  .00002016  00000+0  62745-3 0  9996", "line2": "2 34765  86.3396  33.2465 0015320 215.3687 297.1612 14.40460694875970"}}, "geometry": {"type": "Point", "coordinates": [-166.1086469761092, 78.99062759863934]}}]}